{
  "version": 1,
  "fetchedAt": "2026-06-16T16:59:36.124Z",
  "source": "celestrak-gp",
  "counts": {
    "station": 25,
    "satellite": 400,
    "debris": 250
  },
  "objects": [
    {
      "id": "25544",
      "name": "ISS (ZARYA)",
      "displayName": "国际空间站 ISS",
      "noradId": 25544,
      "line1": "1 25544U 98067A   26167.09292088  .00007536  00000+0  14355-3 0  9991",
      "line2": "2 25544  51.6337 305.5091 0004805 191.3253 168.7628 15.49253146571585",
      "category": "station",
      "highlight": true,
      "operator": "NASA/Roscosmos/ESA/JAXA/CSA"
    },
    {
      "id": "23405",
      "name": "SL-16 R/B",
      "noradId": 23405,
      "line1": "1 23405U 94077B   26167.27276633  .00000045  00000+0  47360-4 0  9991",
      "line2": "2 23405  70.9809 145.0861 0002880 328.6304  31.4646 14.15571913630187",
      "category": "satellite"
    },
    {
      "id": "23561",
      "name": "ARIANE 40+ R/B",
      "noradId": 23561,
      "line1": "1 23561U 95021B   26167.22170772  .00000222  00000+0  84685-4 0  9994",
      "line2": "2 23561  98.4411 237.3105 0006391 196.6304 231.0959 14.39832890633429",
      "category": "satellite"
    },
    {
      "id": "23705",
      "name": "SL-16 R/B",
      "noradId": 23705,
      "line1": "1 23705U 95058B   26167.21384738  .00000285  00000+0  17010-3 0  9998",
      "line2": "2 23705  71.0219 333.4020 0013719 321.8589  38.1562 14.15507932581793",
      "category": "satellite"
    },
    {
      "id": "24298",
      "name": "SL-16 R/B",
      "noradId": 24298,
      "line1": "1 24298U 96051B   26167.18152448  .00000104  00000+0  83140-4 0  9995",
      "line2": "2 24298  70.7640 326.7770 0015386 338.4051  21.6418 14.12445524535557",
      "category": "satellite"
    },
    {
      "id": "24883",
      "name": "ORBVIEW 2 (SEASTAR)",
      "noradId": 24883,
      "line1": "1 24883U 97037A   26167.32298246  .00000165  00000+0  73487-4 0  9993",
      "line2": "2 24883  98.8686 334.3180 0003163 117.9348 242.2157 14.35552913522628",
      "category": "satellite"
    },
    {
      "id": "25400",
      "name": "SL-16 R/B",
      "noradId": 25400,
      "line1": "1 25400U 98043G   26167.31049066  .00000035  00000+0  33756-4 0  9991",
      "line2": "2 25400  98.8363 121.4621 0010945  88.6097 271.6337 14.26068511453043",
      "category": "satellite"
    },
    {
      "id": "25407",
      "name": "SL-16 R/B",
      "noradId": 25407,
      "line1": "1 25407U 98045B   26167.17641677 -.00000249  00000+0 -10159-3 0  9990",
      "line2": "2 25407  71.0118 334.4556 0009443 242.7916 117.2245 14.16203548441048",
      "category": "satellite"
    },
    {
      "id": "25732",
      "name": "CZ-4B R/B",
      "noradId": 25732,
      "line1": "1 25732U 99025C   26167.00956981  .00000051  00000+0  44930-4 0  9993",
      "line2": "2 25732  98.6484 208.8777 0038109  62.9583 359.4974 14.18283301402102",
      "category": "satellite"
    },
    {
      "id": "25860",
      "name": "OKEAN-O",
      "noradId": 25860,
      "line1": "1 25860U 99039A   26166.92821284  .00000510  00000+0  73445-4 0  9990",
      "line2": "2 25860  97.9318 225.7406 0001656  72.9952 287.1442 14.80465876448922",
      "category": "satellite"
    },
    {
      "id": "25861",
      "name": "SL-16 R/B",
      "noradId": 25861,
      "line1": "1 25861U 99039B   26167.15373233  .00000419  00000+0  59739-4 0  9991",
      "line2": "2 25861  97.9838 226.0197 0013529 300.6154  59.3724 14.81844296451449",
      "category": "satellite"
    },
    {
      "id": "25876",
      "name": "DELTA 2 R/B",
      "noradId": 25876,
      "line1": "1 25876U 99041E   26166.97216225  .00000587  00000+0  13237-3 0  9994",
      "line2": "2 25876  51.7658 268.6505 0500852 278.4250  76.0231 14.12014406376910",
      "category": "satellite"
    },
    {
      "id": "25977",
      "name": "HELIOS 1B",
      "noradId": 25977,
      "line1": "1 25977U 99064A   26167.30444899  .00001186  00000+0  13565-3 0  9999",
      "line2": "2 25977  98.1615  72.4187 0002483  92.5313 267.6187 14.88004699699922",
      "category": "satellite"
    },
    {
      "id": "25994",
      "name": "TERRA",
      "noradId": 25994,
      "line1": "1 25994U 99068A   26167.26488625  .00000320  00000+0  74040-4 0  9997",
      "line2": "2 25994  97.9457 216.8477 0001510 192.7850 231.8615 14.61102450409470",
      "category": "satellite"
    },
    {
      "id": "26070",
      "name": "SL-16 R/B",
      "noradId": 26070,
      "line1": "1 26070U 00006B   26167.28803278 -.00000095  00000+0 -23983-4 0  9995",
      "line2": "2 26070  71.0021 250.5157 0015485  24.3556 335.8296 14.15834076362513",
      "category": "satellite"
    },
    {
      "id": "26474",
      "name": "TITAN 4B R/B",
      "noradId": 26474,
      "line1": "1 26474U 00047B   26167.26550103  .00002540  00000+0  15979-3 0  9992",
      "line2": "2 26474  67.9881 123.1674 0045714 288.1116  71.5058 15.10192952407794",
      "category": "satellite"
    },
    {
      "id": "27386",
      "name": "ENVISAT",
      "noradId": 27386,
      "line1": "1 27386U 02009A   26167.12705345  .00000063  00000+0  34283-4 0  9998",
      "line2": "2 27386  98.3834 118.4691 0001348  88.8123 282.4947 14.39064578273330",
      "category": "satellite"
    },
    {
      "id": "27422",
      "name": "IDEFIX & ARIANE 42P R/B",
      "noradId": 27422,
      "line1": "1 27422U 02021B   26167.29056381  .00000168  00000+0  80562-4 0  9997",
      "line2": "2 27422  98.5942 104.7833 0010572 256.8641 103.1362 14.31081731258122",
      "category": "satellite"
    },
    {
      "id": "27424",
      "name": "AQUA",
      "noradId": 27424,
      "line1": "1 27424U 02022A   26167.23256087  .00000649  00000+0  13892-3 0  9994",
      "line2": "2 27424  98.4277 136.4963 0001136  52.8200   6.1550 14.62156908283134",
      "category": "satellite"
    },
    {
      "id": "27432",
      "name": "CZ-4B R/B",
      "noradId": 27432,
      "line1": "1 27432U 02024C   26167.10727409  .00000042  00000+0  43966-4 0  9995",
      "line2": "2 27432  98.8700 219.9345 0051188 103.2428 311.0705 14.14564288243153",
      "category": "satellite"
    },
    {
      "id": "27597",
      "name": "MIDORI II (ADEOS-II)",
      "noradId": 27597,
      "line1": "1 27597U 02056A   26167.29804612  .00000201  00000+0  96643-4 0  9991",
      "line2": "2 27597  98.7878 126.5503 0002213  78.2445 281.8984 14.29349175224383",
      "category": "satellite"
    },
    {
      "id": "27601",
      "name": "H-2A R/B",
      "noradId": 27601,
      "line1": "1 27601U 02056E   26167.32579773  .00000150  00000+0  67449-4 0  9993",
      "line2": "2 27601  98.3312 124.0317 0069147 227.1747 254.9027 14.33821734228242",
      "category": "satellite"
    },
    {
      "id": "28059",
      "name": "CZ-4B R/B",
      "noradId": 28059,
      "line1": "1 28059U 03049C   26167.26854323  .00000233  00000+0  65196-4 0  9993",
      "line2": "2 28059  98.6896 166.0784 0046991 291.4755  68.1434 14.55099618200934",
      "category": "satellite"
    },
    {
      "id": "28222",
      "name": "CZ-2C R/B",
      "noradId": 28222,
      "line1": "1 28222U 04012C   26167.20949633  .00087941  00000+0  49670-3 0  9998",
      "line2": "2 28222  97.7089 242.7586 0009318 287.3312  72.6934 15.78826596219740",
      "category": "satellite"
    },
    {
      "id": "28353",
      "name": "SL-16 R/B",
      "noradId": 28353,
      "line1": "1 28353U 04021B   26167.02989113 -.00000261  00000+0 -11090-3 0  9997",
      "line2": "2 28353  71.0010  26.1181 0007320 256.4234 103.6073 14.14608824136748",
      "category": "satellite"
    },
    {
      "id": "28415",
      "name": "CZ-4B R/B",
      "noradId": 28415,
      "line1": "1 28415U 04035C   26167.08661377  .00006702  00000+0  22601-3 0  9990",
      "line2": "2 28415  97.3361 200.1724 0029994 341.9805  18.0370 15.30614013194951",
      "category": "satellite"
    },
    {
      "id": "28480",
      "name": "CZ-2C R/B",
      "noradId": 28480,
      "line1": "1 28480U 04046B   26167.27998768  .00000058  00000+0  37259-4 0  9996",
      "line2": "2 28480  98.1946  76.1175 0138445 222.9720 136.0583 14.27026329122565",
      "category": "satellite"
    },
    {
      "id": "28499",
      "name": "ARIANE 5 R/B",
      "noradId": 28499,
      "line1": "1 28499U 04049H   26167.18720463  .00000562  00000+0  68225-4 0  9991",
      "line2": "2 28499  98.2719 339.4014 0084561  32.6446 327.9955 14.85447925160414",
      "category": "satellite"
    },
    {
      "id": "28738",
      "name": "CZ-2D R/B",
      "noradId": 28738,
      "line1": "1 28738U 05024B   26167.32671781  .00052366  00000+0  44505-3 0  9998",
      "line2": "2 28738  97.3474 186.7124 0003545  56.9269 303.2333 15.69465796155205",
      "category": "satellite"
    },
    {
      "id": "28931",
      "name": "ALOS (DAICHI)",
      "noradId": 28931,
      "line1": "1 28931U 06002A   26167.13760070  .00000894  00000+0  15726-3 0  9991",
      "line2": "2 28931  98.1323 122.7082 0001489  57.3784 302.7566 14.70048498 87941",
      "category": "satellite"
    }
  ]
}