OBJECT_NAME,OBJECT_ID,EPOCH,MEAN_MOTION,ECCENTRICITY,INCLINATION,RA_OF_ASC_NODE,ARG_OF_PERICENTER,MEAN_ANOMALY,EPHEMERIS_TYPE,CLASSIFICATION_TYPE,NORAD_CAT_ID,ELEMENT_SET_NO,REV_AT_EPOCH,BSTAR,MEAN_MOTION_DOT,MEAN_MOTION_DDOT
SL-16 R/B,1994-077B,2026-06-16T06:32:47.010912,14.15571913,.000288,70.9809,145.0861,328.6304,31.4646,0,U,23405,999,63018,.47360371E-4,.45E-6,0
ARIANE 40+ R/B,1995-021B,2026-06-16T05:19:15.547008,14.39832890,.00063919,98.4411,237.3105,196.6304,231.0959,0,U,23561,999,63342,.84684899E-4,.222E-5,0
SL-16 R/B,1995-058B,2026-06-16T05:07:56.413632,14.15507932,.00137197,71.0219,333.4020,321.8589,38.1562,0,U,23705,999,58179,.17010454E-3,.285E-5,0
SL-16 R/B,1996-051B,2026-06-16T04:21:23.715072,14.12445524,.00153867,70.7640,326.7770,338.4051,21.6418,0,U,24298,999,53555,.83140232E-4,.104E-5,0
ORBVIEW 2 (SEASTAR),1997-037A,2026-06-16T07:45:05.684544,14.35552913,.00031637,98.8686,334.3180,117.9348,242.2157,0,U,24883,999,52262,.7348727E-4,.165E-5,0
SL-16 R/B,1998-043G,2026-06-16T07:27:06.393024,14.26068511,.00109454,98.8363,121.4621,88.6097,271.6337,0,U,25400,999,45304,.33756445E-4,.35E-6,0
SL-16 R/B,1998-045B,2026-06-16T04:14:02.408928,14.16203548,.00094432,71.0118,334.4556,242.7916,117.2245,0,U,25407,999,44104,-.10158951E-3,-.249E-5,0
ISS (ZARYA),1998-067A,2026-06-16T02:13:48.364032,15.49253146,.00048059,51.6337,305.5091,191.3253,168.7628,0,U,25544,999,57158,.14354606E-3,.7536E-4,0
CZ-4B R/B,1999-025C,2026-06-16T00:13:46.831584,14.18283301,.00381097,98.6484,208.8777,62.9583,359.4974,0,U,25732,999,40210,.4493037E-4,.51E-6,0
OKEAN-O,1999-039A,2026-06-15T22:16:37.589376,14.80465876,.0001656,97.9318,225.7406,72.9952,287.1442,0,U,25860,999,44892,.73445E-4,.51E-5,0
SL-16 R/B,1999-039B,2026-06-16T03:41:22.473312,14.81844296,.0013529,97.9838,226.0197,300.6154,59.3724,0,U,25861,999,45144,.59739292E-4,.419E-5,0
DELTA 2 R/B,1999-041E,2026-06-15T23:19:54.818400,14.12014406,.0500852,51.7658,268.6505,278.4250,76.0231,0,U,25876,999,37691,.13237289E-3,.587E-5,0
HELIOS 1B,1999-064A,2026-06-16T07:18:24.392736,14.88004699,.00024833,98.1615,72.4187,92.5313,267.6187,0,U,25977,999,69992,.13565437E-3,.1186E-4,0
TERRA,1999-068A,2026-06-16T06:21:26.172000,14.61102450,.00015106,97.9457,216.8477,192.7850,231.8615,0,U,25994,999,40947,.74040219E-4,.32E-5,0
SL-16 R/B,2000-006B,2026-06-16T06:54:46.032192,14.15834076,.00154854,71.0021,250.5157,24.3556,335.8296,0,U,26070,999,36251,-.23983328E-4,-.95E-6,0
TITAN 4B R/B,2000-047B,2026-06-16T06:22:19.288992,15.10192952,.00457149,67.9881,123.1674,288.1116,71.5058,0,U,26474,999,40779,.15978815E-3,.254E-4,0
ENVISAT,2002-009A,2026-06-16T03:02:57.418080,14.39064578,.00013485,98.3834,118.4691,88.8123,282.4947,0,U,27386,999,27333,.34282993E-4,.63E-6,0
IDEFIX & ARIANE 42P R/B,2002-021B,2026-06-16T06:58:24.713184,14.31081731,.00105722,98.5942,104.7833,256.8641,103.1362,0,U,27422,999,25812,.8056169E-4,.168E-5,0
AQUA,2002-022A,2026-06-16T05:34:53.259168,14.62156908,.00011364,98.4277,136.4963,52.8200,6.1550,0,U,27424,999,28313,.13892091E-3,.649E-5,0
CZ-4B R/B,2002-024C,2026-06-16T02:34:28.481376,14.14564288,.00511883,98.8700,219.9345,103.2428,311.0705,0,U,27432,999,24315,.43966079E-4,.42E-6,0
MIDORI II (ADEOS-II),2002-056A,2026-06-16T07:09:11.184768,14.29349175,.00022137,98.7878,126.5503,78.2445,281.8984,0,U,27597,999,22438,.96642956E-4,.201E-5,0
H-2A R/B,2002-056E,2026-06-16T07:49:08.923872,14.33821734,.00691479,98.3312,124.0317,227.1747,254.9027,0,U,27601,999,22824,.67449358E-4,.15E-5,0
CZ-4B R/B,2003-049C,2026-06-16T06:26:42.135072,14.55099618,.00469917,98.6896,166.0784,291.4755,68.1434,0,U,28059,999,20093,.65195701E-4,.233E-5,0
CZ-2C R/B,2004-012C,2026-06-16T05:01:40.482912,15.78826596,.00093188,97.7089,242.7586,287.3312,72.6934,0,U,28222,999,21974,.49669748E-3,.87941E-3,0
SL-16 R/B,2004-021B,2026-06-16T00:43:02.593632,14.14608824,.00073207,71.0010,26.1181,256.4234,103.6073,0,U,28353,999,13674,-.11089715E-3,-.261E-5,0
CZ-4B R/B,2004-035C,2026-06-16T02:04:43.429728,15.30614013,.00299949,97.3361,200.1724,341.9805,18.0370,0,U,28415,999,19495,.22601289E-3,.6702E-4,0
CZ-2C R/B,2004-046B,2026-06-16T06:43:10.935552,14.27026329,.01384459,98.1946,76.1175,222.9720,136.0583,0,U,28480,999,12256,.37259118E-4,.58E-6,0
ARIANE 5 R/B,2004-049H,2026-06-16T04:29:34.480032,14.85447925,.00845618,98.2719,339.4014,32.6446,327.9955,0,U,28499,999,16041,.68225362E-4,.562E-5,0
CZ-2D R/B,2005-024B,2026-06-16T07:50:28.418784,15.69465796,.00035457,97.3474,186.7124,56.9269,303.2333,0,U,28738,999,15520,.44504509E-3,.52366E-3,0
ALOS (DAICHI),2006-002A,2026-06-16T03:18:08.700480,14.70048498,.00014892,98.1323,122.7082,57.3784,302.7566,0,U,28931,999,8794,.15725572E-3,.894E-5,0
